{
  "type": "FeatureCollection",
  "features": [
    {
      "type": "Feature",
      "properties": {},
      "geometry": {
        "type": "Polygon",
        "coordinates": [[
          [110.7815146327357, -7.66142218644417],
          [110.7832617471467, -7.661784508975131],
          [110.78473936054974, -7.661213979207389],
          [110.78608070633027, -7.661194999617237],
          [110.78676344919273, -7.6623340205749315],
          [110.78749586779395, -7.662849000429276],
          [110.78854317302932, -7.663126451171777],
          [110.7892914712883, -7.663147859705546],
          [110.79004889085333, -7.662888244597234],
          [110.79199018361925, -7.6634127002886],
          [110.79307766548882, -7.663817827760225],
          [110.79279087103997, -7.664152837670267],
          [110.79248069074976, -7.664030513921461],
          [110.79140285231836, -7.665349908697827],
          [110.79040582579421, -7.6662285288622956],
          [110.79032405031663, -7.666808336767787],
          [110.7897455077404, -7.667290650813064],
          [110.78960844598524, -7.667842781507719],
          [110.79013667559227, -7.668604750233753],
          [110.78984280646267, -7.6706715614914325],
          [110.7905792448602, -7.670847236350788],
          [110.7904626771221, -7.671269878393053],
          [110.79523251626262, -7.672744096966257],
          [110.79741953206724, -7.673520913165115],
          [110.80128695864646, -7.675419760360046],
          [110.80176726445544, -7.6758554789040865],
          [110.8017763078227, -7.676174981047586],
          [110.80202597526028, -7.676822793836105],
          [110.80260099473699, -7.6775333754674016],
          [110.80270779736554, -7.678174296001043],
          [110.80171782997255, -7.679501239935246],
          [110.79639774045705, -7.676528684157162],
          [110.79605006549966, -7.677552145952013],
          [110.79522079394332, -7.677835117821051],
          [110.79515958860824, -7.681011115129975],
          [110.79444803101018, -7.681093612655171],
          [110.79400031834471, -7.681228188237036],
          [110.79350854961336, -7.68173692515329],
          [110.7892994523813, -7.681511325841864],
          [110.78806052427882, -7.680470912277747],
          [110.7863404602093, -7.6802211927005395],
          [110.78532175496886, -7.68022306674971],
          [110.78332979505046, -7.680366974265008],
          [110.7816349440501, -7.68028081860397],
          [110.78167245345473, -7.679996655947685],
          [110.78147656072119, -7.678801353666566],
          [110.78060934969164, -7.677856210368612],
          [110.77997380239603, -7.677892064634004],
          [110.77913364457282, -7.677720008634321],
          [110.77856490176406, -7.6773581794006915],
          [110.77816544347345, -7.676983273844062],
          [110.77735232433152, -7.676582088698378],
          [110.77728517882801, -7.675852252923986],
          [110.7774942704637, -7.675216823493869],
          [110.77776212704205, -7.673324140137201],
          [110.77875418283793, -7.674712255078077],
          [110.78028833953442, -7.674192498328044],
          [110.78063223545006, -7.673119401528149],
          [110.78040321990508, -7.672810729482355],
          [110.78024167557905, -7.672559766029963],
          [110.7801095996504, -7.672323951153453],
          [110.77929365780756, -7.671779424296673],
          [110.77928386906112, -7.671679170162624],
          [110.77868171609836, -7.671678934645428],
          [110.77810426082243, -7.671680215249315],
          [110.77830957083665, -7.670511623913514],
          [110.77858498949111, -7.669374752412736],
          [110.77919387636538, -7.6669774251882465],
          [110.77813687145502, -7.666293156637198],
          [110.77789300083799, -7.6659503334800245],
          [110.77815494643498, -7.664633456526426],
          [110.77871338281602, -7.664269311160287],
          [110.77900110364392, -7.663940464963881],
          [110.77929566664588, -7.663353376203958],
          [110.77973168588852, -7.662887910472142],
          [110.78015801976653, -7.662491681630778],
          [110.78059558536374, -7.662263604644507],
          [110.78090548883904, -7.662108202373236],
          [110.78115432158754, -7.661879258494658],
          [110.78151294877506, -7.66142219840971],
          [110.7815146327357, -7.66142218644417]
        ]]
      }
    }
  ]
}
